STARLINK-36385          
1 67717U 26025AA  26061.55471551  .00230579  00000+0  11679-2 0  9992
2 67717  97.2870 172.8801 0002486 106.3663 253.7879 15.80910300  4827
CZ-2F DEB               
1 67718U 26024E   26058.50732833  .00191604  00000+0  35886-2 0  9997
2 67718  50.3169  68.5830 0246509 240.0171 117.6115 15.20915897  3086
CZ-2F DEB               
1 67719U 26024F   26062.16432722  .00159571  00000+0  38809-2 0  9994
2 67719  49.7919  53.3018 0318223 245.3163 111.4339 15.01530846  3260
CZ-2F DEB               
1 67720U 26024G   26062.14032990  .00148060  00000+0  37028-2 0  9990
2 67720  49.8312  53.9297 0329030 241.4260 115.3206 14.98844134  3571
STARLINK-36772          
1 67721U 26026A   26062.17105700 -.00810584  00000+0 -62340-2 0  9990
2 67721  97.2839 116.5100 0001438  94.0415 266.1015 15.74192121  3104
STARLINK-36796          
1 67722U 26026B   26062.16668981 -.01925730  00000+0 -16407-1 0  9998
2 67722  97.2838 116.5085 0001460  71.1221 266.3504 15.72892275  4260
STARLINK-36369          
1 67723U 26026C   26062.16668981 -.01929214  00000+0 -16158-1 0  9993
2 67723  97.2836 116.5120 0001539  61.2839 284.6861 15.73295550  4264
STARLINK-36752          
1 67724U 26026D   26062.16668981 -.01934096  00000+0 -15320-1 0  9998
2 67724  97.2837 116.5192 0001548  65.2014 296.0376 15.74590253  4261
STARLINK-36754          
1 67725U 26026E   26062.16668981 -.01926880  00000+0 -17055-1 0  9998
2 67725  97.2835 116.5141 0001506  65.0278 285.5615 15.72001695  4262
STARLINK-36755          
1 67726U 26026F   26062.16668981 -.01966291  00000+0 -18901-1 0  9990
2 67726  97.2835 116.5085 0001480  65.9842 271.1998 15.69554237  4263
STARLINK-36741          
1 67727U 26026G   26062.16668981 -.01970543  00000+0 -18074-1 0  9997
2 67727  97.2834 116.5151 0001524  61.6116 290.8279 15.70683158  4260
STARLINK-36757          
1 67728U 26026H   26062.16668981 -.01931826  00000+0 -14929-1 0  9994
2 67728  97.2838 116.5295 0001700  57.1261 332.4987 15.75148677  4267
STARLINK-36751          
1 67729U 26026J   26062.16668981 -.01928585  00000+0 -14534-1 0  9995
2 67729  97.2839 116.5365 0001723  57.2393 349.1012 15.75714104  4267
STARLINK-36747          
1 67730U 26026K   26062.16668981 -.01930778  00000+0 -14616-1 0  9995
2 67730  97.2839 116.5333 0001630  58.9323 338.4094 15.75617724  4263
STARLINK-36315          
1 67731U 26026L   26062.16668981 -.01926540  00000+0 -14405-1 0  9994
2 67731  97.2840 116.5393 0001613  62.5405 350.0413 15.75889614  4269
STARLINK-36260          
1 67732U 26026M   26062.16668981 -.01929918  00000+0 -14191-1 0  9999
2 67732  97.2842 116.5422 0001786  55.8917   4.9708 15.76272157  4260
STARLINK-36746          
1 67733U 26026N   26062.16668981 -.01887642  00000+0 -30635-1 0  9998
2 67733  97.2841 116.4416 0001931  65.3678 108.0270 15.56086293  4266
